YAOGAN-35 03B           
1 53318U 22088C   26068.54399603  .00010651  00000+0  44045-3 0  9993
2 53318  34.9880 116.4068 0013847 202.6301 157.3803 15.23107662201134
TRANSPORTER-15 OBJECT H 
1 66673U 25276H   26068.73117153  .00009902  00000+0  46258-3 0  9997
2 66673  97.4225 143.9657 0006041  14.2077 345.9327 15.19987760 15323
